NORAD_CAT_ID,OBJECT_NAME,OBJECT_TYPE,EPOCH,MEAN_MOTION,ECCENTRICITY,INCLINATION,RA_OF_ASC_NODE,ARG_OF_PERICENTER,MEAN_ANOMALY,BSTAR,MEAN_MOTION_DOT,MEAN_MOTION_DDOT,TLE_LINE0,TLE_LINE1,TLE_LINE2,SEMIMAJOR_AXIS,PERIOD,APOGEE,PERIGEE,DECAYED
52838.0,STARLINK-4092,PAYLOAD,2023-10-08 15:17:57,15.08842966,0.0001712,53.2186,38.2874,92.607,267.5118,0.0002055,2.984e-05,0.0,0 STARLINK-4092,1 52838U 22062J   23281.63747218  .00002984  00000-0  20550-3 0  9990,2 52838  53.2186  38.2874 0001712  92.6070 267.5118 15.08842966 72479,6917.871,95.437,540.921,538.552,0.0
52838.0,STARLINK-4092,PAYLOAD,2023-10-09 00:50:16,15.08847325,0.0001753,53.2195,36.5047,80.4882,279.6309,0.0002358,3.467e-05,0.0,0 STARLINK-4092,1 52838U 22062J   23282.03491043  .00003467  00000-0  23580-3 0  9990,2 52838  53.2195  36.5047 0001753  80.4882 279.6309 15.08847325 73025,6917.858,95.437,540.936,538.51,0.0
52838.0,STARLINK-4092,PAYLOAD,2023-10-09 08:47:12,15.08833745,0.000158,53.2187,35.0166,82.3624,277.7548,-1.9803e-05,-6.03e-06,0.0,0 STARLINK-4092,1 52838U 22062J   23282.36611496 -.00000603  00000-0 -19803-4 0  9997,2 52838  53.2187  35.0166 0001580  82.3624 277.7548 15.08833745 73075,6917.9,95.438,540.858,538.671,0.0
52838.0,STARLINK-4092,PAYLOAD,2023-10-09 13:33:21,15.08839765,0.0001804,53.2182,34.1249,78.9829,281.1366,5.6793e-05,6.16e-06,0.0,0 STARLINK-4092,1 52838U 22062J   23282.56483368  .00000616  00000-0  56793-4 0  9995,2 52838  53.2182  34.1249 0001804  78.9829 281.1366 15.08839765 72613,6917.881,95.438,540.994,538.498,0.0
52838.0,STARLINK-4092,PAYLOAD,2023-10-09 15:08:44,15.08847362,0.0001483,53.2176,33.8256,78.075,282.0408,0.00018772,2.701e-05,0.0,0 STARLINK-4092,1 52838U 22062J   23282.63106967  .00002701  00000-0  18772-3 0  9991,2 52838  53.2176  33.8256 0001483  78.0750 282.0408 15.08847362 73112,6917.858,95.437,540.749,538.697,0.0
52838.0,STARLINK-4092,PAYLOAD,2023-10-10 07:02:35,15.08844356,0.0001573,53.2178,30.8527,80.8348,279.2822,0.0001956,2.827e-05,0.0,0 STARLINK-4092,1 52838U 22062J   23283.29347105  .00002827  00000-0  19560-3 0  9990,2 52838  53.2178  30.8527 0001573  80.8348 279.2822 15.08844356 73215,6917.867,95.437,540.82,538.644,0.0
52838.0,STARLINK-4092,PAYLOAD,2023-10-10 13:24:07,15.08855356,0.0001668,53.218,29.6627,96.7186,263.3996,0.00028465,4.247e-05,0.0,0 STARLINK-4092,1 52838U 22062J   23283.55842468  .00004247  00000-0  28465-3 0  9993,2 52838  53.2180  29.6627 0001668  96.7186 263.3996 15.08855356 72763,6917.833,95.437,540.852,538.545,0.0
52838.0,STARLINK-4092,PAYLOAD,2023-10-10 14:59:30,15.08861262,0.0001417,53.2182,29.3666,80.9388,279.1765,0.00041738,6.365e-05,0.0,0 STARLINK-4092,1 52838U 22062J   23283.62466272  .00006365  00000-0  41738-3 0  9997,2 52838  53.2182  29.3666 0001417  80.9388 279.1765 15.08861262 73264,6917.815,95.436,540.661,538.7,0.0
52838.0,STARLINK-4092,PAYLOAD,2023-10-11 13:14:54,15.08857396,0.0001574,53.2178,25.2028,91.6226,268.4947,0.00028855,4.309e-05,0.0,0 STARLINK-4092,1 52838U 22062J   23284.55201921  .00004309  00000-0  28855-3 0  9999,2 52838  53.2178  25.2028 0001574  91.6226 268.4947 15.08857396 73402,6917.827,95.436,540.781,538.603,0.0
52838.0,STARLINK-4092,PAYLOAD,2023-10-12 13:05:42,15.088359,0.0001664,53.2187,20.7413,78.6809,281.437,9.5611e-07,-2.73e-06,0.0,0 STARLINK-4092,1 52838U 22062J   23285.54562786 -.00000273  00000-0  95611-6 0  9992,2 52838  53.2187  20.7413 0001664  78.6809 281.4370 15.08835900 73066,6917.893,95.438,540.909,538.607,0.0
52838.0,STARLINK-4092,PAYLOAD,2023-10-13 12:56:29,15.08843847,0.0001718,53.2185,16.2825,81.8023,278.3164,0.00031246,4.689e-05,0.0,0 STARLINK-4092,1 52838U 22062J   23286.53923309  .00004689  00000-0  31246-3 0  9999,2 52838  53.2185  16.2825 0001718  81.8023 278.3164 15.08843847 73217,6917.869,95.437,540.922,538.545,0.0
52838.0,STARLINK-4092,PAYLOAD,2023-10-14 11:11:53,15.08854467,0.000167,53.2181,12.1207,74.4519,285.6657,0.00048734,7.48e-05,0.0,0 STARLINK-4092,1 52838U 22062J   23287.46659059  .00007480  00000-0  48734-3 0  9992,2 52838  53.2181  12.1207 0001670  74.4519 285.6657 15.08854467 73844,6917.836,95.437,540.856,538.546,0.0
52838.0,STARLINK-4092,PAYLOAD,2023-10-14 12:47:16,15.0886028,0.0001486,53.218,11.8235,79.3309,280.785,0.00059641,9.222e-05,0.0,0 STARLINK-4092,1 52838U 22062J   23287.53282846  .00009222  00000-0  59641-3 0  9991,2 52838  53.2180  11.8235 0001486  79.3309 280.7850 15.08860280 73364,6917.818,95.436,540.711,538.655,0.0
52838.0,STARLINK-4092,PAYLOAD,2023-10-14 22:19:35,15.08839835,0.0001904,53.2191,10.0383,82.7716,277.3492,9.1707e-06,-1.42e-06,0.0,0 STARLINK-4092,1 52838U 22062J   23287.93027371 -.00000142  00000-0  91707-5 0  9999,2 52838  53.2191  10.0383 0001904  82.7716 277.3492 15.08839835 73913,6917.881,95.438,541.063,538.429,0.0
52838.0,STARLINK-4092,PAYLOAD,2023-10-15 12:38:04,15.08825711,0.0001641,53.2189,7.3642,97.3122,262.8056,-0.00020049,-3.476e-05,0.0,0 STARLINK-4092,1 52838U 22062J   23288.52644177 -.00003476  00000-0 -20049-3 0  9997,2 52838  53.2189   7.3642 0001641  97.3122 262.8056 15.08825711 74002,6917.924,95.438,540.924,538.654,0.0
52838.0,STARLINK-4092,PAYLOAD,2023-10-16 04:31:55,15.0883974,0.0001503,53.2176,4.3895,96.2322,263.8841,0.00027933,4.16e-05,0.0,0 STARLINK-4092,1 52838U 22062J   23289.18884172  .00004160  00000-0  27933-3 0  9999,2 52838  53.2176   4.3895 0001503  96.2322 263.8841 15.08839740 74103,6917.881,95.438,540.786,538.706,0.0
52838.0,STARLINK-4092,PAYLOAD,2023-10-16 12:28:51,15.08856069,0.0001533,53.2172,2.9031,96.5388,263.5778,0.001221,0.00019206,0.0,0 STARLINK-4092,1 52838U 22062J   23289.52004281  .00019206  00000-0  12210-2 0  9990,2 52838  53.2172   2.9031 0001533  96.5388 263.5778 15.08856069 73662,6917.831,95.437,540.757,538.636,0.0
52838.0,STARLINK-4092,PAYLOAD,2023-10-17 12:19:38,15.08854239,0.0001387,53.2169,358.4422,90.4047,269.7104,0.00049292,7.569e-05,0.0,0 STARLINK-4092,1 52838U 22062J   23290.51363973  .00007569  00000-0  49292-3 0  9997,2 52838  53.2169 358.4422 0001387  90.4047 269.7104 15.08854239 74303,6917.837,95.437,540.661,538.742,0.0
52838.0,STARLINK-4092,PAYLOAD,2023-10-17 13:55:01,15.08856291,0.0001353,53.2167,358.1448,93.9624,266.1522,0.00060732,9.395e-05,0.0,0 STARLINK-4092,1 52838U 22062J   23290.57987840  .00009395  00000-0  60732-3 0  9999,2 52838  53.2167 358.1448 0001353  93.9624 266.1522 15.08856291 73829,6917.831,95.437,540.632,538.76,0.0
52838.0,STARLINK-4092,PAYLOAD,2023-10-18 12:10:25,15.08845683,0.000156,53.2173,353.9829,72.9158,287.2005,0.00019717,2.852e-05,0.0,0 STARLINK-4092,1 52838U 22062J   23291.50724243  .00002852  00000-0  19717-3 0  9997,2 52838  53.2173 353.9829 0001560  72.9158 287.2005 15.08845683 74454,6917.863,95.437,540.807,538.649,0.0
52838.0,STARLINK-4092,PAYLOAD,2023-10-18 21:42:44,15.08847563,0.0001433,53.2168,352.1973,83.6988,276.4167,0.00030437,4.56e-05,0.0,0 STARLINK-4092,1 52838U 22062J   23291.90468152  .00004560  00000-0  30437-3 0  9995,2 52838  53.2168 352.1973 0001433  83.6988 276.4167 15.08847563 74029,6917.857,95.437,540.714,538.731,0.0
52838.0,STARLINK-4092,PAYLOAD,2023-10-19 10:25:49,15.08858064,0.0001485,53.2168,349.8187,81.936,278.1801,0.00052304,8.05e-05,0.0,0 STARLINK-4092,1 52838U 22062J   23292.43459751  .00008050  00000-0  52304-3 0  9994,2 52838  53.2168 349.8187 0001485  81.9360 278.1801 15.08858064 74102,6917.825,95.436,540.717,538.663,0.0
52838.0,STARLINK-4092,PAYLOAD,2023-10-19 21:33:31,15.08854115,0.0001736,53.216,347.7404,64.575,295.5422,0.00035199,5.32e-05,0.0,0 STARLINK-4092,1 52838U 22062J   23292.89827747  .00005320  00000-0  35199-3 0  9998,2 52838  53.2160 347.7404 0001736  64.5750 295.5422 15.08854115 74174,6917.837,95.437,540.903,538.501,0.0
52838.0,STARLINK-4092,PAYLOAD,2023-10-20 03:55:03,15.08845323,0.0002005,53.2191,346.5468,109.2037,250.9172,9.6687e-05,1.251e-05,0.0,0 STARLINK-4092,1 52838U 22062J   23293.16323963  .00001251  00000-0  96687-4 0  9999,2 52838  53.2191 346.5468 0002005 109.2037 250.9172 15.08845323 74707,6917.864,95.437,541.116,538.342,0.0
52838.0,STARLINK-4092,PAYLOAD,2023-10-20 08:41:13,15.0883945,0.0001752,53.2178,345.6544,108.8737,251.2445,-3.7516e-06,-3.48e-06,0.0,0 STARLINK-4092,1 52838U 22062J   23293.36196107 -.00000348  00000-0 -37516-5 0  9994,2 52838  53.2178 345.6544 0001752 108.8737 251.2445 15.08839450 74247,6917.882,95.438,540.959,538.535,0.0
52838.0,STARLINK-4092,PAYLOAD,2023-10-21 10:07:23,15.08844726,0.0001717,53.218,340.8988,90.241,269.8779,0.00010151,1.328e-05,0.0,0 STARLINK-4092,1 52838U 22062J   23294.42180339  .00001328  00000-0  10151-3 0  9993,2 52838  53.2180 340.8988 0001717  90.2410 269.8779 15.08844726 74890,6917.866,95.437,540.919,538.543,0.0
52838.0,STARLINK-4092,PAYLOAD,2023-10-21 19:39:42,15.08839017,0.0001607,53.2177,339.1145,95.3985,264.719,0.00012474,1.698e-05,0.0,0 STARLINK-4092,1 52838U 22062J   23294.81924610  .00001698  00000-0  12474-3 0  9994,2 52838  53.2177 339.1145 0001607  95.3985 264.7190 15.08839017 74464,6917.883,95.438,540.86,538.637,0.0
52838.0,STARLINK-4092,PAYLOAD,2023-10-22 03:36:38,15.08837913,0.0001594,53.2171,337.6269,91.4712,268.6463,0.00019418,2.804e-05,0.0,0 STARLINK-4092,1 52838U 22062J   23295.15044719  .00002804  00000-0  19418-3 0  9990,2 52838  53.2171 337.6269 0001594  91.4712 268.6463 15.08837913 75008,6917.887,95.438,540.854,538.649,0.0
52838.0,STARLINK-4092,PAYLOAD,2023-10-22 09:58:10,15.08856799,0.0001886,53.2176,336.4382,104.4025,255.7177,-0.00015697,-2.787e-05,0.0,0 STARLINK-4092,1 52838U 22062J   23295.41539599 -.00002787  00000-0 -15697-3 0  9991,2 52838  53.2176 336.4382 0001886 104.4025 255.7177 15.08856799 75048,6917.829,95.436,540.999,538.389,0.0
52838.0,STARLINK-4092,PAYLOAD,2023-10-22 19:30:30,15.08837023,0.0001706,53.2175,334.6535,88.463,271.6557,0.00011143,1.486e-05,0.0,0 STARLINK-4092,1 52838U 22062J   23295.81284875  .00001486  00000-0  11143-3 0  9994,2 52838  53.2175 334.6535 0001706  88.4630 271.6557 15.08837023 75106,6917.889,95.438,540.935,538.574,0.0
